HST                     
1 20580U 90037B   26068.15977042  .00009063  00000+0  30023-3 0  9999
2 20580  28.4717  43.6133 0001837 120.9992 239.0785 15.29473555773239
STARLINK-35385          
1 65906U 25224AA  26068.21908498  .00031293  00000+0  10648-2 0  9992
2 65906  53.1605  13.4269 0000906 116.6777 243.4317 15.30183882 24787
